ATLAS CENTAUR R/B       
1 06155U 72065B   25322.87113784  .00001609  00000+0  22404-3 0  9990
2 06155  35.0012 235.0072 0033572 159.4676 200.7380 14.77323077824866
SL-8 R/B                
1 08459U 75112B   25322.69235624  .00000377  00000+0  13291-3 0  9998
2 08459  74.0607 223.0871 0015978 337.7034  22.3423 14.38123998615918
SL-3 R/B                
1 10114U 77057B   25322.81898014  .00013482  00000+0  31597-3 0  9991
2 10114  97.5674 125.2311 0007115 332.3921  27.6947 15.42192133651221
SEASAT 1                
1 10967U 78064A   25322.81590759  .00000580  00000+0  20084-3 0  9995
2 10967 108.0075 252.8489 0002236 253.6655 106.4244 14.46023199490484
SL-14 R/B               
1 11267U 79011B   25322.64030615  .00000841  00000+0  80806-4 0  9992
2 11267  82.5255 201.8970 0017638  70.1699 290.1420 14.91729591512228
SL-8 R/B                
1 11574U 79089B   25322.35105955  .00000456  00000+0  14591-3 0  9995
2 11574  74.0679 297.1179 0014832 141.5703 218.6513 14.42260132420050
SL-14 R/B               
1 11672U 80005B   25322.71465444  .00000955  00000+0  94491-4 0  9998
2 11672  82.5162  52.4799 0016064 168.4015 191.7577 14.90748586459952
SL-8 R/B                
1 12139U 81003B   25322.62544632  .00025926  00000+0  70700-3 0  9994
2 12139  82.9343  32.3782 0282015 203.7031 155.1001 15.05879040297938
SL-3 R/B                
1 12465U 81046B   25322.77171182  .00013111  00000+0  33702-3 0  9999
2 12465  81.2342  62.5903 0020456  46.9781 313.3169 15.38928172421354
METEOR PRIRODA          
1 12585U 81065A   25322.32799213  .02399751  25188-5  61180-3 0  9995
2 12585  97.4589  27.8174 0006165 263.1572  96.9019 16.28856528426892
SL-3 R/B                
1 12904U 81103B   25322.82986788  .00007415  00000+0  34433-3 0  9995
2 12904  81.1589 343.3503 0011857 307.3045  52.7104 15.19823297956382
SL-3 R/B                
1 13068U 82013B   25322.82738475  .00004935  00000+0  22137-3 0  9998
2 13068  81.1731 290.5941 0022470 189.3596 170.7220 15.20787154387497
