CCSDS_OMM_VERS = 2.0
CREATION_DATE  = 
ORIGINATOR     = 

OBJECT_NAME    = ATLAS CENTAUR R/B
OBJECT_ID      = 1972-065B
CENTER_NAME    = EARTH
REF_FRAME      = TEME
TIME_SYSTEM    = UTC
MEAN_ELEMENT_THEORY = SGP/SGP4

EPOCH          = 2025-11-18T20:54:26.309376
MEAN_MOTION    = 14.77323077
ECCENTRICITY   = .0033572
INCLINATION    = 35.0012
RA_OF_ASC_NODE = 235.0072
ARG_OF_PERICENTER = 159.4676
MEAN_ANOMALY   = 200.7380

EPHEMERIS_TYPE = 0
CLASSIFICATION_TYPE = U
NORAD_CAT_ID   = 6155
ELEMENT_SET_NO = 999
REV_AT_EPOCH   = 82486
BSTAR          = .22404E-3
MEAN_MOTION_DOT = .1609E-4
MEAN_MOTION_DDOT = 0

CCSDS_OMM_VERS = 2.0
CREATION_DATE  = 
ORIGINATOR     = 

OBJECT_NAME    = SL-8 R/B
OBJECT_ID      = 1975-112B
CENTER_NAME    = EARTH
REF_FRAME      = TEME
TIME_SYSTEM    = UTC
MEAN_ELEMENT_THEORY = SGP/SGP4

EPOCH          = 2025-11-18T16:36:59.579136
MEAN_MOTION    = 14.38123998
ECCENTRICITY   = .0015978
INCLINATION    = 74.0607
RA_OF_ASC_NODE = 223.0871
ARG_OF_PERICENTER = 337.7034
MEAN_ANOMALY   = 22.3423

EPHEMERIS_TYPE = 0
CLASSIFICATION_TYPE = U
NORAD_CAT_ID   = 8459
ELEMENT_SET_NO = 999
REV_AT_EPOCH   = 61591
BSTAR          = .13291E-3
MEAN_MOTION_DOT = .377E-5
MEAN_MOTION_DDOT = 0

CCSDS_OMM_VERS = 2.0
CREATION_DATE  = 
ORIGINATOR     = 

OBJECT_NAME    = SL-3 R/B
OBJECT_ID      = 1977-057B
CENTER_NAME    = EARTH
REF_FRAME      = TEME
TIME_SYSTEM    = UTC
MEAN_ELEMENT_THEORY = SGP/SGP4

EPOCH          = 2025-11-18T19:39:19.884096
MEAN_MOTION    = 15.42192133
ECCENTRICITY   = .0007115
INCLINATION    = 97.5674
RA_OF_ASC_NODE = 125.2311
ARG_OF_PERICENTER = 332.3921
MEAN_ANOMALY   = 27.6947

EPHEMERIS_TYPE = 0
CLASSIFICATION_TYPE = U
NORAD_CAT_ID   = 10114
ELEMENT_SET_NO = 999
REV_AT_EPOCH   = 65122
BSTAR          = .31597E-3
MEAN_MOTION_DOT = .13482E-3
MEAN_MOTION_DDOT = 0

CCSDS_OMM_VERS = 2.0
CREATION_DATE  = 
ORIGINATOR     = 

OBJECT_NAME    = SEASAT 1
OBJECT_ID      = 1978-064A
CENTER_NAME    = EARTH
REF_FRAME      = TEME
TIME_SYSTEM    = UTC
MEAN_ELEMENT_THEORY = SGP/SGP4

EPOCH          = 2025-11-18T19:34:54.415776
MEAN_MOTION    = 14.46023199
ECCENTRICITY   = .0002236
INCLINATION    = 108.0075
RA_OF_ASC_NODE = 252.8489
ARG_OF_PERICENTER = 253.6655
MEAN_ANOMALY   = 106.4244

EPHEMERIS_TYPE = 0
CLASSIFICATION_TYPE = U
NORAD_CAT_ID   = 10967
ELEMENT_SET_NO = 999
REV_AT_EPOCH   = 49048
BSTAR          = .20084E-3
MEAN_MOTION_DOT = .58E-5
MEAN_MOTION_DDOT = 0

CCSDS_OMM_VERS = 2.0
CREATION_DATE  = 
ORIGINATOR     = 

OBJECT_NAME    = SL-14 R/B
OBJECT_ID      = 1979-011B
CENTER_NAME    = EARTH
REF_FRAME      = TEME
TIME_SYSTEM    = UTC
MEAN_ELEMENT_THEORY = SGP/SGP4

EPOCH          = 2025-11-18T15:22:02.451360
MEAN_MOTION    = 14.91729591
ECCENTRICITY   = .0017638
INCLINATION    = 82.5255
RA_OF_ASC_NODE = 201.8970
ARG_OF_PERICENTER = 70.1699
MEAN_ANOMALY   = 290.1420

EPHEMERIS_TYPE = 0
CLASSIFICATION_TYPE = U
NORAD_CAT_ID   = 11267
ELEMENT_SET_NO = 999
REV_AT_EPOCH   = 51222
BSTAR          = .80806E-4
MEAN_MOTION_DOT = .841E-5
MEAN_MOTION_DDOT = 0

CCSDS_OMM_VERS = 2.0
CREATION_DATE  = 
ORIGINATOR     = 

OBJECT_NAME    = SL-8 R/B
OBJECT_ID      = 1979-089B
CENTER_NAME    = EARTH
REF_FRAME      = TEME
TIME_SYSTEM    = UTC
MEAN_ELEMENT_THEORY = SGP/SGP4

EPOCH          = 2025-11-18T08:25:31.545120
MEAN_MOTION    = 14.42260132
ECCENTRICITY   = .0014832
INCLINATION    = 74.0679
RA_OF_ASC_NODE = 297.1179
ARG_OF_PERICENTER = 141.5703
MEAN_ANOMALY   = 218.6513

EPHEMERIS_TYPE = 0
CLASSIFICATION_TYPE = U
NORAD_CAT_ID   = 11574
ELEMENT_SET_NO = 999
REV_AT_EPOCH   = 42005
BSTAR          = .14591E-3
MEAN_MOTION_DOT = .456E-5
MEAN_MOTION_DDOT = 0

CCSDS_OMM_VERS = 2.0
CREATION_DATE  = 
ORIGINATOR     = 

OBJECT_NAME    = SL-14 R/B
OBJECT_ID      = 1980-005B
CENTER_NAME    = EARTH
REF_FRAME      = TEME
TIME_SYSTEM    = UTC
MEAN_ELEMENT_THEORY = SGP/SGP4

EPOCH          = 2025-11-18T17:09:06.143616
MEAN_MOTION    = 14.90748586
ECCENTRICITY   = .0016064
INCLINATION    = 82.5162
RA_OF_ASC_NODE = 52.4799
ARG_OF_PERICENTER = 168.4015
MEAN_ANOMALY   = 191.7577

EPHEMERIS_TYPE = 0
CLASSIFICATION_TYPE = U
NORAD_CAT_ID   = 11672
ELEMENT_SET_NO = 999
REV_AT_EPOCH   = 45995
BSTAR          = .94491E-4
MEAN_MOTION_DOT = .955E-5
MEAN_MOTION_DDOT = 0

CCSDS_OMM_VERS = 2.0
CREATION_DATE  = 
ORIGINATOR     = 

OBJECT_NAME    = SL-8 R/B
OBJECT_ID      = 1981-003B
CENTER_NAME    = EARTH
REF_FRAME      = TEME
TIME_SYSTEM    = UTC
MEAN_ELEMENT_THEORY = SGP/SGP4

EPOCH          = 2025-11-18T15:00:38.562048
MEAN_MOTION    = 15.05879040
ECCENTRICITY   = .0282015
INCLINATION    = 82.9343
RA_OF_ASC_NODE = 32.3782
ARG_OF_PERICENTER = 203.7031
MEAN_ANOMALY   = 155.1001

EPHEMERIS_TYPE = 0
CLASSIFICATION_TYPE = U
NORAD_CAT_ID   = 12139
ELEMENT_SET_NO = 999
REV_AT_EPOCH   = 29793
BSTAR          = .707E-3
MEAN_MOTION_DOT = .25926E-3
MEAN_MOTION_DDOT = 0

CCSDS_OMM_VERS = 2.0
CREATION_DATE  = 
ORIGINATOR     = 

OBJECT_NAME    = SL-3 R/B
OBJECT_ID      = 1981-046B
CENTER_NAME    = EARTH
REF_FRAME      = TEME
TIME_SYSTEM    = UTC
MEAN_ELEMENT_THEORY = SGP/SGP4

EPOCH          = 2025-11-18T18:31:15.901248
MEAN_MOTION    = 15.38928172
ECCENTRICITY   = .0020456
INCLINATION    = 81.2342
RA_OF_ASC_NODE = 62.5903
ARG_OF_PERICENTER = 46.9781
MEAN_ANOMALY   = 313.3169

EPHEMERIS_TYPE = 0
CLASSIFICATION_TYPE = U
NORAD_CAT_ID   = 12465
ELEMENT_SET_NO = 999
REV_AT_EPOCH   = 42135
BSTAR          = .33702E-3
MEAN_MOTION_DOT = .13111E-3
MEAN_MOTION_DDOT = 0

CCSDS_OMM_VERS = 2.0
CREATION_DATE  = 
ORIGINATOR     = 

OBJECT_NAME    = METEOR PRIRODA
OBJECT_ID      = 1981-065A
CENTER_NAME    = EARTH
REF_FRAME      = TEME
TIME_SYSTEM    = UTC
MEAN_ELEMENT_THEORY = SGP/SGP4

EPOCH          = 2025-11-18T07:52:18.520032
MEAN_MOTION    = 16.28856528
ECCENTRICITY   = .0006165
INCLINATION    = 97.4589
RA_OF_ASC_NODE = 27.8174
ARG_OF_PERICENTER = 263.1572
MEAN_ANOMALY   = 96.9019

EPHEMERIS_TYPE = 0
CLASSIFICATION_TYPE = U
NORAD_CAT_ID   = 12585
ELEMENT_SET_NO = 999
REV_AT_EPOCH   = 42689
BSTAR          = .6118E-3
MEAN_MOTION_DOT = .2399751E-1
MEAN_MOTION_DDOT = .25188E-5

CCSDS_OMM_VERS = 2.0
CREATION_DATE  = 
ORIGINATOR     = 

OBJECT_NAME    = SL-3 R/B
OBJECT_ID      = 1981-103B
CENTER_NAME    = EARTH
REF_FRAME      = TEME
TIME_SYSTEM    = UTC
MEAN_ELEMENT_THEORY = SGP/SGP4

EPOCH          = 2025-11-18T19:55:00.584832
MEAN_MOTION    = 15.19823297
ECCENTRICITY   = .0011857
INCLINATION    = 81.1589
RA_OF_ASC_NODE = 343.3503
ARG_OF_PERICENTER = 307.3045
MEAN_ANOMALY   = 52.7104

EPHEMERIS_TYPE = 0
CLASSIFICATION_TYPE = U
NORAD_CAT_ID   = 12904
ELEMENT_SET_NO = 999
REV_AT_EPOCH   = 95638
BSTAR          = .34433E-3
MEAN_MOTION_DOT = .7415E-4
MEAN_MOTION_DDOT = 0

CCSDS_OMM_VERS = 2.0
CREATION_DATE  = 
ORIGINATOR     = 

OBJECT_NAME    = SL-3 R/B
OBJECT_ID      = 1982-013B
CENTER_NAME    = EARTH
REF_FRAME      = TEME
TIME_SYSTEM    = UTC
MEAN_ELEMENT_THEORY = SGP/SGP4

EPOCH          = 2025-11-18T19:51:26.042400
MEAN_MOTION    = 15.20787154
ECCENTRICITY   = .002247
INCLINATION    = 81.1731
RA_OF_ASC_NODE = 290.5941
ARG_OF_PERICENTER = 189.3596
MEAN_ANOMALY   = 170.7220

EPHEMERIS_TYPE = 0
CLASSIFICATION_TYPE = U
NORAD_CAT_ID   = 13068
ELEMENT_SET_NO = 999
REV_AT_EPOCH   = 38749
BSTAR          = .22137E-3
MEAN_MOTION_DOT = .4935E-4
MEAN_MOTION_DDOT = 0

